{
    "links": {
        "self": "http://www.neowsapp.com/rest/v1/neo/3776080?api_key=iIulBulltgU6a56xZRHN4H3l9WmuAYTsLGpBGhQ2"
    },
    "id": "3776080",
    "neo_reference_id": "3776080",
    "name": "(2017 MY4)",
    "designation": "2017 MY4",
    "nasa_jpl_url": "http://ssd.jpl.nasa.gov/sbdb.cgi?sstr=3776080",
    "absolute_magnitude_h": 23.6,
    "estimated_diameter": {
        "kilometers": {
            "estimated_diameter_min": 0.0506471459,
            "estimated_diameter_max": 0.1132504611
        },
        "meters": {
            "estimated_diameter_min": 50.6471458835,
            "estimated_diameter_max": 113.2504610618
        },
        "miles": {
            "estimated_diameter_min": 0.0314706677,
            "estimated_diameter_max": 0.0703705522
        },
        "feet": {
            "estimated_diameter_min": 166.1651821003,
            "estimated_diameter_max": 371.5566426699
        }
    },
    "is_potentially_hazardous_asteroid": false,
    "close_approach_data": [
        {
            "close_approach_date": "1911-12-14",
            "close_approach_date_full": "1911-Dec-14 21:47",
            "epoch_date_close_approach": -1831860780000,
            "relative_velocity": {
                "kilometers_per_second": "6.8289739011",
                "kilometers_per_hour": "24584.3060439894",
                "miles_per_hour": "15275.7317193888"
            },
            "miss_distance": {
                "astronomical": "0.0213632807",
                "lunar": "8.3103161923",
                "kilometers": "3195901.288932109",
                "miles": "1985840.9762727442"
            },
            "orbiting_body": "Mars"
        },
        {
            "close_approach_date": "1914-06-03",
            "close_approach_date_full": "1914-Jun-03 18:25",
            "epoch_date_close_approach": -1753940100000,
            "relative_velocity": {
                "kilometers_per_second": "7.3688710578",
                "kilometers_per_hour": "26527.9358079244",
                "miles_per_hour": "16483.4276690961"
            },
            "miss_distance": {
                "astronomical": "0.236746076",
                "lunar": "92.094223564",
                "kilometers": "35416708.70045812",
                "miles": "22006922.311917256"
            },
            "orbiting_body": "Earth"
        },
        {
            "close_approach_date": "2017-06-10",
            "close_approach_date_full": "2017-Jun-10 09:53",
            "epoch_date_close_approach": 1497088380000,
            "relative_velocity": {
                "kilometers_per_second": "7.3698973794",
                "kilometers_per_hour": "26531.6305657107",
                "miles_per_hour": "16485.7234478995"
            },
            "miss_distance": {
                "astronomical": "0.2280170205",
                "lunar": "88.6986209745",
                "kilometers": "34110860.590546335",
                "miles": "21195505.922296023"
            },
            "orbiting_body": "Earth"
        }
    ],
    "orbital_data": {
        "orbit_id": "4",
        "orbit_determination_date": "2017-07-04 06:19:49",
        "first_observation_date": "2017-06-23",
        "last_observation_date": "2017-07-02",
        "data_arc_in_days": 9,
        "observations_used": 19,
        "orbit_uncertainty": "8",
        "minimum_orbit_intersection": ".227762",
        "jupiter_tisserand_invariant": "4.744",
        "epoch_osculation": "2457931.5",
        "eccentricity": ".1049106205954008",
        "semi_major_axis": "1.38758563445823",
        "inclination": "14.53393699412207",
        "ascending_node_longitude": "255.8630968389957",
        "orbital_period": "597.0189541802289",
        "perihelion_distance": "1.242013164417954",
        "perihelion_argument": "8.726009733867018",
        "aphelion_distance": "1.533158104498505",
        "perihelion_time": "2457921.355998547888",
        "mean_anomaly": "6.116791597973116",
        "mean_motion": ".6029959308315741",
        "equinox": "J2000",
        "orbit_class": {
            "orbit_class_type": "AMO",
            "orbit_class_description": "Near-Earth asteroid orbits similar to that of 1221 Amor",
            "orbit_class_range": "1.017 AU < q (perihelion) < 1.3 AU"
        }
    },
    "is_sentry_object": false
}